CCSDS_OMM_VERS = 2.0
CREATION_DATE  = 
ORIGINATOR     = 

OBJECT_NAME    = SL-14 R/B
OBJECT_ID      = 1986-046B
CENTER_NAME    = EARTH
REF_FRAME      = TEME
TIME_SYSTEM    = UTC
MEAN_ELEMENT_THEORY = SGP/SGP4

EPOCH          = 2025-11-27T00:28:09.234048
MEAN_MOTION    = 14.85460602
ECCENTRICITY   = .00224623
INCLINATION    = 82.4816
RA_OF_ASC_NODE = 177.1600
ARG_OF_PERICENTER = 204.0903
MEAN_ANOMALY   = 155.9264

EPHEMERIS_TYPE = 0
CLASSIFICATION_TYPE = U
NORAD_CAT_ID   = 16792
ELEMENT_SET_NO = 999
REV_AT_EPOCH   = 11116
BSTAR          = .61089758E-4
MEAN_MOTION_DOT = .553E-5
MEAN_MOTION_DDOT = 0

CCSDS_OMM_VERS = 2.0
CREATION_DATE  = 
ORIGINATOR     = 

OBJECT_NAME    = SL-14 R/B
OBJECT_ID      = 1986-055B
CENTER_NAME    = EARTH
REF_FRAME      = TEME
TIME_SYSTEM    = UTC
MEAN_ELEMENT_THEORY = SGP/SGP4

EPOCH          = 2025-11-27T05:32:54.106656
MEAN_MOTION    = 14.85507330
ECCENTRICITY   = .00178948
INCLINATION    = 82.5217
RA_OF_ASC_NODE = 222.9434
ARG_OF_PERICENTER = 314.9037
MEAN_ANOMALY   = 164.0351

EPHEMERIS_TYPE = 0
CLASSIFICATION_TYPE = U
NORAD_CAT_ID   = 16882
ELEMENT_SET_NO = 999
REV_AT_EPOCH   = 10415
BSTAR          = .66653067E-4
MEAN_MOTION_DOT = .601E-5
MEAN_MOTION_DDOT = 0

CCSDS_OMM_VERS = 2.0
CREATION_DATE  = 
ORIGINATOR     = 

OBJECT_NAME    = AJISAI (EGS)
OBJECT_ID      = 1986-061A
CENTER_NAME    = EARTH
REF_FRAME      = TEME
TIME_SYSTEM    = UTC
MEAN_ELEMENT_THEORY = SGP/SGP4

EPOCH          = 2025-11-27T06:39:42.917184
MEAN_MOTION    = 12.44514113
ECCENTRICITY   = .00112421
INCLINATION    = 50.0110
RA_OF_ASC_NODE = 48.2615
ARG_OF_PERICENTER = 27.0746
MEAN_ANOMALY   = 193.7664

EPHEMERIS_TYPE = 0
CLASSIFICATION_TYPE = U
NORAD_CAT_ID   = 16908
ELEMENT_SET_NO = 999
REV_AT_EPOCH   = 45524
BSTAR          = .23076582E-4
MEAN_MOTION_DOT = -.94E-6
MEAN_MOTION_DDOT = 0

CCSDS_OMM_VERS = 2.0
CREATION_DATE  = 
ORIGINATOR     = 

OBJECT_NAME    = COSMOS 1812
OBJECT_ID      = 1987-003A
CENTER_NAME    = EARTH
REF_FRAME      = TEME
TIME_SYSTEM    = UTC
MEAN_ELEMENT_THEORY = SGP/SGP4

EPOCH          = 2025-11-26T23:02:16.413216
MEAN_MOTION    = 15.71988925
ECCENTRICITY   = .00066085
INCLINATION    = 82.4879
RA_OF_ASC_NODE = 309.0516
ARG_OF_PERICENTER = 106.7733
MEAN_ANOMALY   = 253.4255

EPHEMERIS_TYPE = 0
CLASSIFICATION_TYPE = U
NORAD_CAT_ID   = 17295
ELEMENT_SET_NO = 999
REV_AT_EPOCH   = 12817
BSTAR          = .68515956E-3
MEAN_MOTION_DOT = .90206E-3
MEAN_MOTION_DDOT = 0

CCSDS_OMM_VERS = 2.0
CREATION_DATE  = 
ORIGINATOR     = 

OBJECT_NAME    = SL-14 R/B
OBJECT_ID      = 1987-024B
CENTER_NAME    = EARTH
REF_FRAME      = TEME
TIME_SYSTEM    = UTC
MEAN_ELEMENT_THEORY = SGP/SGP4

EPOCH          = 2025-11-27T00:32:54.692736
MEAN_MOTION    = 14.86001216
ECCENTRICITY   = .00169386
INCLINATION    = 82.5286
RA_OF_ASC_NODE = 189.2180
ARG_OF_PERICENTER = 238.5599
MEAN_ANOMALY   = 121.3962

EPHEMERIS_TYPE = 0
CLASSIFICATION_TYPE = U
NORAD_CAT_ID   = 17567
ELEMENT_SET_NO = 999
REV_AT_EPOCH   = 7288
BSTAR          = .61466396E-4
MEAN_MOTION_DOT = .562E-5
MEAN_MOTION_DDOT = 0

CCSDS_OMM_VERS = 2.0
CREATION_DATE  = 
ORIGINATOR     = 

OBJECT_NAME    = COSMOS 1833
OBJECT_ID      = 1987-027A
CENTER_NAME    = EARTH
REF_FRAME      = TEME
TIME_SYSTEM    = UTC
MEAN_ELEMENT_THEORY = SGP/SGP4

EPOCH          = 2025-11-27T00:03:03.883392
MEAN_MOTION    = 14.13017927
ECCENTRICITY   = .00218769
INCLINATION    = 70.9127
RA_OF_ASC_NODE = 181.8609
ARG_OF_PERICENTER = 353.8728
MEAN_ANOMALY   = 6.2121

EPHEMERIS_TYPE = 0
CLASSIFICATION_TYPE = U
NORAD_CAT_ID   = 17589
ELEMENT_SET_NO = 999
REV_AT_EPOCH   = 99580
BSTAR          = -.3101836E-5
MEAN_MOTION_DOT = -.54E-6
MEAN_MOTION_DDOT = 0

CCSDS_OMM_VERS = 2.0
CREATION_DATE  = 
ORIGINATOR     = 

OBJECT_NAME    = SL-16 R/B
OBJECT_ID      = 1987-027B
CENTER_NAME    = EARTH
REF_FRAME      = TEME
TIME_SYSTEM    = UTC
MEAN_ELEMENT_THEORY = SGP/SGP4

EPOCH          = 2025-11-26T22:05:56.493600
MEAN_MOTION    = 14.17149234
ECCENTRICITY   = .0007308
INCLINATION    = 71.0007
RA_OF_ASC_NODE = 133.0509
ARG_OF_PERICENTER = 275.9646
MEAN_ANOMALY   = 84.0644

EPHEMERIS_TYPE = 0
CLASSIFICATION_TYPE = U
NORAD_CAT_ID   = 17590
ELEMENT_SET_NO = 999
REV_AT_EPOCH   = 78
BSTAR          = .1596191E-3
MEAN_MOTION_DOT = .274E-5
MEAN_MOTION_DDOT = 0

CCSDS_OMM_VERS = 2.0
CREATION_DATE  = 
ORIGINATOR     = 

OBJECT_NAME    = SL-14 R/B
OBJECT_ID      = 1987-038B
CENTER_NAME    = EARTH
REF_FRAME      = TEME
TIME_SYSTEM    = UTC
MEAN_ELEMENT_THEORY = SGP/SGP4

EPOCH          = 2025-11-27T05:37:49.069344
MEAN_MOTION    = 14.85239416
ECCENTRICITY   = .00203242
INCLINATION    = 82.5030
RA_OF_ASC_NODE = 33.3035
ARG_OF_PERICENTER = 140.0290
MEAN_ANOMALY   = 220.2427

EPHEMERIS_TYPE = 0
CLASSIFICATION_TYPE = U
NORAD_CAT_ID   = 17912
ELEMENT_SET_NO = 999
REV_AT_EPOCH   = 6402
BSTAR          = .61989171E-4
MEAN_MOTION_DOT = .558E-5
MEAN_MOTION_DDOT = 0

CCSDS_OMM_VERS = 2.0
CREATION_DATE  = 
ORIGINATOR     = 

OBJECT_NAME    = COSMOS 1844
OBJECT_ID      = 1987-041A
CENTER_NAME    = EARTH
REF_FRAME      = TEME
TIME_SYSTEM    = UTC
MEAN_ELEMENT_THEORY = SGP/SGP4

EPOCH          = 2025-11-27T05:11:56.387040
MEAN_MOTION    = 14.14528410
ECCENTRICITY   = .00307479
INCLINATION    = 70.8996
RA_OF_ASC_NODE = 250.3105
ARG_OF_PERICENTER = 181.3408
MEAN_ANOMALY   = 178.7636

EPHEMERIS_TYPE = 0
CLASSIFICATION_TYPE = U
NORAD_CAT_ID   = 17973
ELEMENT_SET_NO = 999
REV_AT_EPOCH   = 98909
BSTAR          = .646523E-6
MEAN_MOTION_DOT = -.47E-6
MEAN_MOTION_DDOT = 0

CCSDS_OMM_VERS = 2.0
CREATION_DATE  = 
ORIGINATOR     = 

OBJECT_NAME    = SL-14 R/B
OBJECT_ID      = 1987-055B
CENTER_NAME    = EARTH
REF_FRAME      = TEME
TIME_SYSTEM    = UTC
MEAN_ELEMENT_THEORY = SGP/SGP4

EPOCH          = 2025-11-27T07:07:03.505440
MEAN_MOTION    = 14.85495984
ECCENTRICITY   = .00205165
INCLINATION    = 82.4994
RA_OF_ASC_NODE = 85.5411
ARG_OF_PERICENTER = 356.3775
MEAN_ANOMALY   = 3.7289

EPHEMERIS_TYPE = 0
CLASSIFICATION_TYPE = U
NORAD_CAT_ID   = 18153
ELEMENT_SET_NO = 999
REV_AT_EPOCH   = 5473
BSTAR          = .67577753E-4
MEAN_MOTION_DOT = .609E-5
MEAN_MOTION_DDOT = 0

CCSDS_OMM_VERS = 2.0
CREATION_DATE  = 
ORIGINATOR     = 

OBJECT_NAME    = COSMOS 1867
OBJECT_ID      = 1987-060A
CENTER_NAME    = EARTH
REF_FRAME      = TEME
TIME_SYSTEM    = UTC
MEAN_ELEMENT_THEORY = SGP/SGP4

EPOCH          = 2025-11-27T03:55:05.654496
MEAN_MOTION    = 14.31482489
ECCENTRICITY   = .00136207
INCLINATION    = 65.0102
RA_OF_ASC_NODE = 233.8219
ARG_OF_PERICENTER = 269.5179
MEAN_ANOMALY   = 90.4345

EPHEMERIS_TYPE = 0
CLASSIFICATION_TYPE = U
NORAD_CAT_ID   = 18187
ELEMENT_SET_NO = 999
REV_AT_EPOCH   = 526
BSTAR          = .37827518E-4
MEAN_MOTION_DOT = 0
MEAN_MOTION_DDOT = 0

CCSDS_OMM_VERS = 2.0
CREATION_DATE  = 
ORIGINATOR     = 

OBJECT_NAME    = COSMOS 1892
OBJECT_ID      = 1987-088A
CENTER_NAME    = EARTH
REF_FRAME      = TEME
TIME_SYSTEM    = UTC
MEAN_ELEMENT_THEORY = SGP/SGP4

EPOCH          = 2025-11-27T05:08:21.371136
MEAN_MOTION    = 16.17077046
ECCENTRICITY   = .00055395
INCLINATION    = 82.4613
RA_OF_ASC_NODE = 61.1372
ARG_OF_PERICENTER = 268.6836
MEAN_ANOMALY   = 91.3816

EPHEMERIS_TYPE = 0
CLASSIFICATION_TYPE = U
NORAD_CAT_ID   = 18421
ELEMENT_SET_NO = 999
REV_AT_EPOCH   = 8883
BSTAR          = .69267139E-3
MEAN_MOTION_DOT = .1032173E-1
MEAN_MOTION_DDOT = .7450141E-3

