SL-14 R/B               
1 16792U 86046B   25331.01955132  .00000553  00000+0  61090-4 0  9991
2 16792  82.4816 177.1600 0022462 204.0903 155.9264 14.85460602111160
SL-14 R/B               
1 16882U 86055B   25331.23118179  .00000601  00000+0  66653-4 0  9991
2 16882  82.5217 222.9434 0017894 314.9037 164.0351 14.85507330104151
AJISAI (EGS)            
1 16908U 86061A   25331.27758006 -.00000094  00000+0  23077-4 0  9990
2 16908  50.0110  48.2615 0011242  27.0746 193.7664 12.44514113455247
COSMOS 1812             
1 17295U 87003A   25330.95991219  .00090206  00000+0  68516-3 0  9995
2 17295  82.4879 309.0516 0006608 106.7733 253.4255 15.71988925128175
SL-14 R/B               
1 17567U 87024B   25331.02285524  .00000562  00000+0  61466-4 0  9998
2 17567  82.5286 189.2180 0016938 238.5599 121.3962 14.86001216 72884
COSMOS 1833             
1 17589U 87027A   25331.00212828 -.00000054  00000+0 -31018-5 0  9999
2 17589  70.9127 181.8609 0021876 353.8728   6.2121 14.13017927995809
SL-16 R/B               
1 17590U 87027B   25330.92079275  .00000274  00000+0  15962-3 0  9998
2 17590  71.0007 133.0509 0007308 275.9646  84.0644 14.17149234   784
SL-14 R/B               
1 17912U 87038B   25331.23459571  .00000558  00000+0  61989-4 0  9990
2 17912  82.5030  33.3035 0020324 140.0290 220.2427 14.85239416 64028
COSMOS 1844             
1 17973U 87041A   25331.21662485 -.00000047  00000+0  64652-6 0  9995
2 17973  70.8996 250.3105 0030747 181.3408 178.7636 14.14528410989093
SL-14 R/B               
1 18153U 87055B   25331.29656835  .00000609  00000+0  67578-4 0  9992
2 18153  82.4994  85.5411 0020516 356.3775   3.7289 14.85495984 54735
COSMOS 1867             
1 18187U 87060A   25331.16325989  .00000000  00000+0  37828-4 0  9994
2 18187  65.0102 233.8219 0013620 269.5179  90.4345 14.31482489  5262
COSMOS 1892             
1 18421U 87088A   25331.21413624  .01032173  74501-3  69267-3 0  9994
2 18421  82.4613  61.1372 0005539 268.6836  91.3816 16.17077046 88837
